GOES 1 [-]              
1 08366U 75100A   12041.78130325 -.00000242  00000-0  10000-3 0  9053
2 08366  14.0251 339.4581 0001650  12.9235 347.1176  1.00287634132663
GOES 2 [-]              
1 10061U 77048A   12041.33027571 -.00000068  00000-0  10000-3 0   574
2 10061  14.6822 347.9740 0014269 284.2415  75.6404  0.99393959 71421
GOES 3 [P]              
1 10953U 78062A   12041.87842634 -.00000114  00000-0  10000-3 0  7204
2 10953  14.5623 351.6317 0005102  40.2226 319.8481  1.00265476 76380
GOES 4 [-]              
1 11964U 80074A   12041.21443989 -.00000316  00000-0  10000-3 0  2840
2 11964  15.0730 355.2976 0035469 325.1302  34.6680  0.99232568 75631
GOES 5 [-]              
1 12472U 81049A   12040.82264819 -.00000282  00000-0  10000-3 0  2007
2 12472  14.4773   5.5510 0002307  46.2812 313.7715  1.00247274 70411
GOES 6 [-]              
1 14050U 83041A   12041.84770567 -.00000270  00000-0  10000-3 0  2063
2 14050  14.3334  10.4695 0003868  32.0984 327.9589  1.00278167163528
GOES 7 [-]              
1 17561U 87022A   12042.54100764  .00000092  00000-0  10000-3 0  3501
2 17561  13.7021  27.1532 0004887  54.3434  87.1971  1.00299508 74633
GOES 8 [-]              
1 23051U 94022A   12042.09945490  .00000048  00000-0  10000-3 0   152
2 23051   8.0419  60.6740 0005816 220.1292 139.9566  0.98903266 72300
GOES 9 [P]              
1 23581U 95025A   12042.39481617 -.00000249  00000-0  10000-3 0  2924
2 23581   7.5867  58.8605 0005762 338.6602  21.4486  0.98802071 61001
GOES 10 [-]             
1 24786U 97019A   12041.51811273 -.00000063  00000-0  10000-3 0  2244
2 24786   5.8090  61.9939 0007205 121.5183 238.7299  0.99098018 54129
GOES 11 [+]             
1 26352U 00022A   12041.67909662 -.00000241  00000-0  00000+0 0  6854
2 26352   0.9970 137.0310 0001381 328.9897 253.9677  0.99045074 43115
GOES 12 [B]             
1 26871U 01031A   12042.41848108 -.00000290  00000-0  10000-3 0  4511
2 26871   1.9737  74.4046 0002376 299.6655 217.4967  1.00281270 38725
GOES 13 [+]             
1 29155U 06018A   12042.45228934 -.00000256  00000-0  10000-3 0  9474
2 29155   0.4242  80.6914 0002222 315.9066 192.5182  1.00268078 20970
GOES 14 [S]             
1 35491U 09033A   12042.47052236 -.00000092  00000-0  00000+0 0  3282
2 35491   0.0829 247.7184 0003560 186.3953 130.7145  1.00271773  9643
GOES 15 [S]             
1 36411U 10008A   12042.24772427  .00000084  00000-0  00000+0 0  9359
2 36411   0.0161 265.2246 0000755 316.5401 232.9764  1.00264345  7149
